satname,norad_id,inclination_deg,eccentricity,mean_motion_rev_per_day,perigee_km,apogee_km,l1,l2
STARLINK-1337,45582,53.0524,0.0001558,15.06395651,546.1459156469746,548.3038584109727,1 45582U 20025BD  25327.06612765 -.00000718  00000+0 -29326-4 0  9998,2 45582  53.0524 195.2730 0001558  96.5888 263.5278 15.06395651309438
STARLINK-1347,45586,53.0516,0.0009886,15.34985156,454.2034499613992,467.72572161682,1 45586U 20025BH  25327.78824199  .00064623  00000+0  18696-2 0  9996,2 45586  53.0516 173.1277 0009886  97.3852 262.8273 15.34985156309800
STARLINK-1360,45588,53.0409,0.0002105,15.81935716,323.5559365639965,326.3779433227119,1 45588U 20025BK  25327.91668980  .00148277  00000+0  70625-3 0  9996,2 45588  53.0409  83.4836 0002105 298.7651 257.0260 15.81935716  5723
STARLINK-1364,45589,53.0529,0.0001527,15.06396475,546.1648592021374,548.279863951163,1 45589U 20025BL  25326.93711117 -.00001428  00000+0 -77017-4 0  9990,2 45589  53.0529 195.8524 0001527  88.5501 271.5663 15.06396475309416
STARLINK-1365,45590,53.0539,0.0001704,15.0639318,546.0523773788354,548.4125432909186,1 45590U 20025BM  25327.74894500 -.00000719  00000+0 -29401-4 0  9996,2 45590  53.0539 222.2029 0001704  93.4446 266.6738 15.06393180309131
STARLINK-1443,45660,53.0524,0.0001446,15.06396663,546.2203785011752,548.2231922619085,1 45660U 20035D   25326.93803642 -.00000973  00000+0 -46449-4 0  9995,2 45660  53.0524 185.8476 0001446  85.7796 274.3359 15.06396663302641
STARLINK-1446,45663,53.0248,0.0001487,15.359583,457.0590156492144,459.0921052646936,1 45663U 20035G   25327.76901691  .00072047  00000+0  20201-2 0  9998,2 45663  53.0248 140.3232 0001487 144.2888 215.8213 15.35958300303353
STARLINK-1448,45665,53.0526,0.0001839,15.06399901,545.9382897034311,548.485433014639,1 45665U 20035J   25326.87537746  .00000192  00000+0  31788-4 0  9993,2 45665  53.0526 186.1219 0001839  78.4249 281.6947 15.06399901302625
STARLINK-1451,45668,53.0532,0.0001574,15.06392783,546.1436237475746,548.3237304367221,1 45668U 20035M   25327.74160769  .00002612  00000+0  19419-3 0  9995,2 45668  53.0532 182.5563 0001574  91.1775 268.9394 15.06392783302769
STARLINK-1452,45669,53.0387,0.0012766,15.28911306,470.3116750594927,487.8194846864244,1 45669U 20035N   25327.78401796  .00043481  00000+0  15276-2 0  9993,2 45669  53.0387 159.8078 0012766  97.5992 262.6457 15.28911306303081
STARLINK-1453,45670,53.0546,0.0001477,15.13035595,525.9288958370271,527.968658175555,1 45670U 20035P   25327.91668980  .00077633  00000+0  43124-2 0  9999,2 45670  53.0546 151.2740 0001477  93.0336 174.7306 15.13035595  5741
STARLINK-1454,45671,53.0549,0.0001729,15.06398131,546.0198924039369,548.4146799160908,1 45671U 20035Q   25327.76368601  .00000220  00000+0  33676-4 0  9991,2 45671  53.0549 182.1379 0001729 102.2644 257.8539 15.06398131302753
STARLINK-1456,45673,53.0528,0.00016,15.06412759,546.0644042043214,548.2805032295109,1 45673U 20035S   25327.77841703  .00002901  00000+0  21352-3 0  9998,2 45673  53.0528 182.0737 0001600  89.4395 270.6777 15.06412759302778
STARLINK-1457,45674,53.0519,0.0001114,15.43442713,435.1986085471399,436.7167888460099,1 45674U 20035T   25327.76264867  .00084789  00000+0  18547-2 0  9993,2 45674  53.0519 178.3843 0001114 104.2732 255.8397 15.43442713302795
STARLINK-1458,45675,53.0521,0.0001592,15.06396474,546.1198474306684,548.3248818523698,1 45675U 20035U   25327.77474205  .00000474  00000+0  50740-4 0  9996,2 45675  53.0521 182.0896 0001592  89.6313 270.4859 15.06396474302731
STARLINK-1460,45676,53.0532,0.0001643,15.06395581,546.0872645766449,548.3629385632212,1 45676U 20035V   25327.74526103  .00001495  00000+0  11924-3 0  9993,2 45676  53.0532 182.2295 0001643  62.2179 297.8977 15.06395581302724
STARLINK-1392,45677,53.0529,0.0001687,15.06375814,546.1173667296025,548.4540043437019,1 45677U 20035W   25327.75633039 -.00003540  00000+0 -21899-3 0  9999,2 45677  53.0529 182.1758 0001687  76.1789 283.9388 15.06375814302766
STARLINK-1394,45679,53.0534,0.0001543,15.0639551,546.1567357699305,548.2939025816286,1 45679U 20035Y   25327.75355139  .00000194  00000+0  31946-4 0  9998,2 45679  53.0534 172.1834 0001543 100.2322 259.8841 15.06395510302908
STARLINK-1402,45685,53.0515,0.0004457,15.2916457,475.25250340089406,481.36433884928556,1 45685U 20035AE  25327.75775817  .00044934  00000+0  15689-2 0  9998,2 45685  53.0515 161.4070 0004457 155.6239 204.4972 15.29164570303069
STARLINK-1404,45686,53.0551,0.0001867,15.06400052,545.9184360197605,548.5043611117844,1 45686U 20035AF  25327.77935049  .00000588  00000+0  58353-4 0  9990,2 45686  53.0551 172.0637 0001867 115.6216 244.4966 15.06400052302913
STARLINK-1413,45689,53.0527,0.0001657,15.06396144,546.0758438338098,548.3709082624318,1 45689U 20035AJ  25327.73143279  .00002987  00000+0  21937-3 0  9997,2 45689  53.0527 172.2827 0001657  98.3585 261.7591 15.06396144302816
STARLINK-1417,45693,53.0528,0.0001639,15.06657325,545.2880707399181,547.5579415099255,1 45693U 20035AN  25327.72719584  .00016311  00000+0  11037-2 0  9994,2 45693  53.0528 172.2976 0001639 101.4855 258.6318 15.06657325302894
STARLINK-1420,45695,53.0539,0.0001471,15.06406145,546.1740084598741,548.21144046481,1 45695U 20035AQ  25327.72864039 -.00000966  00000+0 -45932-4 0  9996,2 45695  53.0539 152.2843 0001471 100.3481 259.7674 15.06406145303188
STARLINK-1422,45696,53.0522,0.0001536,15.06394336,546.1651811320016,548.2926535418073,1 45696U 20035AR  25327.73880117 -.00001437  00000+0 -77576-4 0  9996,2 45696  53.0522 172.2484 0001536  94.4536 265.6629 15.06394336302891
STARLINK-1351,45697,53.0534,0.0001413,15.06400701,546.2308580274148,548.1879609227317,1 45697U 20035AS  25327.78118808  .00000371  00000+0  43792-4 0  9990,2 45697  53.0534 152.0608 0001413  93.6078 266.5073 15.06400701303196
STARLINK-1398,45699,53.0486,0.000344,15.55564713,398.1797198915965,402.84343011119745,1 45699U 20035AU  25327.60697814  .00046876  00000+0  67554-3 0  9993,2 45699  53.0486 104.7378 0003440 185.4345 174.6629 15.55564713303847
STARLINK-1400,45700,53.0515,0.0001422,15.06398459,546.2314956488162,548.2010661219001,1 45700U 20035AV  25327.75538428 -.00001157  00000+0 -58817-4 0  9995,2 45700  53.0515 152.1746 0001422  93.5864 266.5287 15.06398459303188
STARLINK-1403,45701,53.0528,0.0001603,15.06409554,546.0721477790485,548.292405139081,1 45701U 20035AW  25327.78488375  .00002063  00000+0  15733-3 0  9998,2 45701  53.0528 152.0450 0001603  89.4389 270.6783 15.06409554303187
STARLINK-1407,45703,53.0401,0.0010796,15.44114534,426.62671928250165,441.3354446450776,1 45703U 20035AY  25327.67816698  .00022329  00000+0  48718-3 0  9997,2 45703  53.0401 105.1342 0010796 132.5784 227.6133 15.44114534303847
STARLINK-1411,45706,53.0507,5.96e-05,15.43953712,434.048087923431,434.86014878473816,1 45706U 20035BB  25327.75761500  .00040106  00000+0  87210-3 0  9993,2 45706  53.0507 131.9829 0000596 228.8064 131.2890 15.43953712303467
STARLINK-1423,45710,53.0537,0.0001593,15.06399762,546.1090792326168,548.3154955155742,1 45710U 20035BF  25327.74432978  .00000453  00000+0  49342-4 0  9997,2 45710  53.0537 152.2264 0001593  99.6493 260.4676 15.06399762303186
STARLINK-1433,45711,53.0537,0.000158,15.06397376,546.1253937892052,548.3138064748482,1 45711U 20035BG  25327.72590322  .00001036  00000+0  88422-4 0  9994,2 45711  53.0537 152.3076 0001580  96.6839 263.4330 15.06397376303174
STARLINK-1434,45712,53.0487,0.0007023,15.16949876,510.22414920740994,519.9063410809385,1 45712U 20035BH  25327.73676023  .00028378  00000+0  14303-2 0  9992,2 45712  53.0487 146.8203 0007023 135.0287 225.1276 15.16949876303265
STARLINK-1465,45731,53.0553,0.0001399,15.06407134,546.220840137652,548.1585465464486,1 45731U 20038B   25327.29463275  .00000198  00000+0  32163-4 0  9996,2 45731  53.0553 354.2468 0001399  66.9880 293.1257 15.06407134300153
STARLINK-1471,45735,53.0514,0.0001417,15.42118071,438.893124866966,440.8253449999456,1 45735U 20038F   25327.18106586  .00023126  00000+0  53998-3 0  9991,2 45735  53.0514 289.4085 0001417  75.8451 284.2711 15.42118071301068
STARLINK-1474,45738,53.0356,0.0004268,15.71395399,352.0344312102807,357.7817585032508,1 45738U 20038J   25327.01202081  .00082840  00000+0  63526-3 0  9999,2 45738  53.0356 243.0124 0004268  76.4538 283.6955 15.71395399301699
STARLINK-1475,45739,53.041,0.0004398,15.93003071,290.95007620881825,296.8187862597324,1 45739U 20038K   25327.91668980  .00359852  60949-4  10133-2 0  9991,2 45739  53.0410 202.4120 0004398 132.3336 165.1701 15.93003071  5992
STARLINK-1480,45741,53.0544,0.0001327,15.06396759,546.3024960825205,548.1404862260733,1 45741U 20038M   25327.47525970 -.00000550  00000+0 -18054-4 0  9995,2 45741  53.0544 353.4313 0001327  84.1296 275.9844 15.06396759300192
STARLINK-1500,45744,53.0399,0.0001683,15.28818941,478.18765287543374,480.49588022825446,1 45744U 20038Q   25327.38872443  .00020590  00000+0  73581-3 0  9997,2 45744  53.0399 329.0823 0001683 341.2251  18.8685 15.28818941300521
STARLINK-1504,45746,53.0281,0.0002673,15.42631638,436.52389098973435,440.167982767789,1 45746U 20038S   25327.19986235  .00048287  00000+0  10945-2 0  9990,2 45746  53.0281 292.3956 0002673  26.5224 333.5916 15.42631638301016
STARLINK-1506,45747,53.0659,0.0002437,15.22182072,497.5841589322181,500.9362023180538,1 45747U 20038T   25327.24473963  .00009105  00000+0  40532-3 0  9998,2 45747  53.0659 333.3419 0002437 340.6537  19.4366 15.22182072300458
STARLINK-1464,45751,53.0557,0.0001374,15.06392187,546.2839575794796,548.1870499435136,1 45751U 20038X   25327.41077200  .00003344  00000+0  24332-3 0  9995,2 45751  53.0557 333.7219 0001374  85.4581 274.6565 15.06392187300463
STARLINK-1477,45754,53.0534,0.0003875,15.07954954,539.7682161155153,545.1316709967705,1 45754U 20038AA  25327.41067149  .00026929  00000+0  17448-2 0  9992,2 45754  53.0534 333.5655 0003875  44.5825 315.5476 15.07954954300461
